{"fetched_at":"2026-03-30T06:02:59Z","count":15439,"tles":[{"name":"STARLINK-5279","line1":"1 54165U 22141J   26087.80698941  .00002326  00000+0  16413-3 0  9999","line2":"2 54165  53.2166 288.2748 0001386  91.8737 268.2414 15.08852657188605","category":"Starlink"}]}