{
  "norad_id": 54165,
  "name": "STARLINK-5279",
  "history": [
    {
      "epoch": "2026-03-28T19:22:03.885024",
      "apogee_km": 540.6638606010165,
      "perigee_km": 538.7455430970931,
      "latitude_deg": 53.17983882263981,
      "longitude_deg": 33.9709833599627,
      "semi_major_axis_km": 6917.8417018490545,
      "eccentricity": 0.00013865,
      "inclination_deg": 53.2166,
      "raan_deg": 288.2748,
      "arg_perigee_deg": 91.8737,
      "mean_anomaly_deg": 268.2414,
      "mean_motion_rev_day": 15.08852657
    }
  ]
}